ONEWEB-0317             
1 49103U 21075AE  23290.42590417 -.00000364  00000+0 -10474-2 0  9992
2 49103  87.9068 184.2940 0001622  67.7279 292.4022 13.12442040107464
ONEWEB-0318             
1 49104U 21075AF  23290.43370907 -.00001374  00000+0 -35186-2 0  9993
2 49104  87.9202 169.1604 0002512  74.7026 285.4384 13.18692900108834
ONEWEB-0319             
1 49105U 21075AG  23290.44532709  .00001457  00000+0  37194-2 0  9996
2 49105  87.9265 199.3938 0001804  87.8581 272.2757 13.17643588105374
ONEWEB-0323             
1 49106U 21075AH  23290.41636686 -.00000051  00000+0 -17645-3 0  9994
2 49106  87.9068 184.2847 0001654  83.2257 276.9060 13.12441087106825
ONEWEB-0329             
1 49107U 21075AJ  23290.45165026  .00000119  00000+0  27263-3 0  9994
2 49107  87.9267 199.3955 0001566  79.4137 280.7171 13.17650311105350
ONEWEB-0330             
1 49108U 21075AK  23290.45375564  .00000114  00000+0  25978-3 0  9991
2 49108  87.9256 199.4069 0001457  75.5352 284.5941 13.17650279105395
ONEWEB-0292             
1 49186U 21083A   23290.38557533  .00000295  00000+0  77161-3 0  9997
2 49186  87.9027 154.0169 0001695  79.6170 280.5150 13.13468384103095
ONEWEB-0303             
1 49187U 21083B   23290.42949299 -.00000006  00000+0 -48335-4 0  9991
2 49187  87.9204 169.1639 0001722  86.1722 273.9607 13.18685507101644
